STARLINK-31758          
1 59621U 24080W   26183.48670682 -.00026004  00000+0 -93578-3 0  9996
2 59621  42.9997 105.7629 0001464 158.2233 201.8681 15.27683020122133
STARLINK-31774          
1 59622U 24080X   26183.78549792 -.00002212  00000+0 -70915-4 0  9993
2 59622  43.0032 104.5701 0000683 188.6696 171.4144 15.27566815122178
STARLINK-31763          
1 59623U 24080Y   26183.80556378 -.00000868  00000+0 -22021-4 0  9995
2 59623  43.0014 108.1781 0001253 272.1865  87.8843 15.27576888122131
LEGION 1                
1 59625U 24081A   26183.79681513  .00004273  00000+0  22093-3 0  9996
2 59625  97.5014 261.4878 0008077 320.9958  39.0692 15.16774418119902
LEGION 2                
1 59626U 24081B   26183.82702063  .00005054  00000+0  26073-3 0  9995
2 59626  97.5014 261.6149 0009859 282.7640  77.2491 15.16752900119912
STARLINK-31749          
1 59631U 24082A   26183.49403544 -.00003974  00000+0 -13501-3 0  9990
2 59631  42.9975 211.1251 0001038 301.7370  58.3380 15.27571871122576
STARLINK-31781          
1 59632U 24082B   26183.71905907  .00000142  00000+0  14702-4 0  9993
2 59632  43.0009 196.0728 0001279 277.7419  82.3288 15.27579028122600
STARLINK-31541          
1 59633U 24082C   26183.76683213 -.00000250  00000+0  42631-6 0  9997
2 59633  43.0014 202.7978 0000983 290.7557  69.3189 15.27572787122686
STARLINK-31797          
1 59634U 24082D   26183.77485780 -.00000714  00000+0 -16429-4 0  9998
2 59634  43.0002 209.7903 0001012 272.6894  87.3841 15.27573564122450
STARLINK-31798          
1 59635U 24082E   26183.54540559  .00002100  00000+0  85767-4 0  9990
2 59635  43.0020 211.5110 0001629 278.8905  81.1762 15.27595501122377
STARLINK-31802          
1 59636U 24082F   26183.79925875  .00000305  00000+0  20642-4 0  9992
2 59636  43.0094 209.9735 0003246 266.4055  93.6426 15.27571061122414
STARLINK-31791          
1 59637U 24082G   26183.76328684 -.00000234  00000+0  10274-5 0  9998
2 59637  43.0004 209.7008 0001354 276.4171  83.6527 15.27577206122413
STARLINK-31727          
1 59638U 24082H   26183.54928419  .00000155  00000+0  15154-4 0  9999
2 59638  43.0012 211.5353 0001391 271.5167  88.5525 15.27578371122426
STARLINK-31807          
1 59639U 24082J   26183.80312713 -.00000757  00000+0 -17979-4 0  9990
2 59639  43.0024 210.0054 0001405 290.3506  69.7195 15.27573788122414
STARLINK-31806          
1 59640U 24082K   26183.78512833 -.00001152  00000+0 -32320-4 0  9991
2 59640  43.0076 209.8654 0002440 265.9201  94.1372 15.27574000122412
STARLINK-31804          
1 59641U 24082L   26183.75943267  .00001026  00000+0  46831-4 0  9998
2 59641  43.0004 209.6711 0001573 300.7905  59.2792 15.27574716122413
STARLINK-31660          
1 59642U 24082M   26183.66184428 -.00003697  00000+0 -12490-3 0  9996
2 59642  43.0037 170.1299 0000850 295.8813  64.1951 15.27578773123052
STARLINK-31800          
1 59643U 24082N   26183.79668961  .00001053  00000+0  47832-4 0  9991
2 59643  43.0076 209.9390 0003468 273.9592  86.0864 15.27570280122519
STARLINK-31789          
1 59644U 24082P   26183.77099377  .00017047  00000+0  62743-3 0  9996
2 59644  42.9937 209.7598 0001676 273.3107  86.7553 15.27586099122615
STARLINK-31795          
1 59645U 24082Q   26183.20382738  .00001379  00000+0  59620-4 0  9993
2 59645  43.0029 154.5254 0001354 272.7002  87.3695 15.27582761122993
STARLINK-31796          
1 59646U 24082R   26183.77742076  .00000118  00000+0  13811-4 0  9993
2 59646  43.0047 209.8055 0002087 275.5058  84.5556 15.27574552122571
STARLINK-31801          
1 59647U 24082S   26183.55313686  .00000604  00000+0  31477-4 0  9999
2 59647  43.0007 211.5629 0001673 277.6346  82.4315 15.27581281122429
STARLINK-31787          
1 59650U 24082V   26183.78128060 -.00000962  00000+0 -25437-4 0  9996
2 59650  43.0014 209.8345 0001094 274.1462  85.9264 15.27571414122613
STARLINK-31277          
1 59651U 24082W   26183.78898484 -.00001077  00000+0 -29619-4 0  9995
2 59651  43.0064 209.8970 0002211 277.1128  82.9472 15.27572504122616
STARLINK-31799          
1 59652U 24082X   26183.76089028 -.00000424  00000+0 -58939-5 0  9993
2 59652  43.0043 199.2772 0001505 274.0343  86.0336 15.27578651122585
STARLINK-31764          
1 59653U 24082Y   26183.76714325 -.00000732  00000+0 -17068-4 0  9998
2 59653  42.9987 209.7274 0001236 276.1615  83.9096 15.27575879122613
STARLINK-31589          
1 59654U 24084A   26183.82557793 -.00002939  00000+0 -97334-4 0  9997
2 59654  42.9995 111.4043 0000513 252.4456 107.6339 15.27581701122001
STARLINK-31665          
1 59655U 24084B   26183.83377783  .00007325  00000+0  27585-3 0  9990
2 59655  43.0011 108.0126 0000965 186.3254 173.7586 15.27529748122022
STARLINK-31912          
1 59656U 24084C   26183.85384319  .00000237  00000+0  18143-4 0  9992
2 59656  42.9993 111.6155 0000848 261.6363  98.4392 15.27575112121988
STARLINK-31904          
1 59657U 24084D   26183.84356107 -.00000455  00000+0 -70212-5 0  9996
2 59657  43.0038 111.5397 0000656 252.5019 107.5762 15.27568593121980
