OBJECT_NAME,OBJECT_ID,EPOCH,MEAN_MOTION,ECCENTRICITY,INCLINATION,RA_OF_ASC_NODE,ARG_OF_PERICENTER,MEAN_ANOMALY,EPHEMERIS_TYPE,CLASSIFICATION_TYPE,NORAD_CAT_ID,ELEMENT_SET_NO,REV_AT_EPOCH,BSTAR,MEAN_MOTION_DOT,MEAN_MOTION_DDOT
STARLINK-31758,2024-080W,2026-07-02T11:40:51.469248,15.27683020,.0001464,42.9997,105.7629,158.2233,201.8681,0,U,59621,999,12213,-.93578E-3,-.26004E-3,0
STARLINK-31774,2024-080X,2026-07-02T18:51:07.020288,15.27566815,.00006838,43.0032,104.5701,188.6696,171.4144,0,U,59622,999,12217,-.70915422E-4,-.2212E-4,0
STARLINK-31763,2024-080Y,2026-07-02T19:20:00.710592,15.27576888,.00012535,43.0014,108.1781,272.1865,87.8843,0,U,59623,999,12213,-.22020769E-4,-.868E-5,0
LEGION 1,2024-081A,2026-07-02T19:07:24.827232,15.16774418,.00080774,97.5014,261.4878,320.9958,39.0692,0,U,59625,999,11990,.22092805E-3,.4273E-4,0
LEGION 2,2024-081B,2026-07-02T19:50:54.582432,15.16752900,.00098593,97.5014,261.6149,282.7640,77.2491,0,U,59626,999,11991,.26073321E-3,.5054E-4,0
STARLINK-31749,2024-082A,2026-07-02T11:51:24.662016,15.27571871,.0001038,42.9975,211.1251,301.7370,58.3380,0,U,59631,999,12257,-.13501E-3,-.3974E-4,0
STARLINK-31781,2024-082B,2026-07-02T17:15:26.703648,15.27579028,.00012794,43.0009,196.0728,277.7419,82.3288,0,U,59632,999,12260,.14701852E-4,.142E-5,0
STARLINK-31541,2024-082C,2026-07-02T18:24:14.296032,15.27572787,.00009839,43.0014,202.7978,290.7557,69.3189,0,U,59633,999,12268,.426308E-6,-.25E-5,0
STARLINK-31797,2024-082D,2026-07-02T18:35:47.713920,15.27573564,.00010123,43.0002,209.7903,272.6894,87.3841,0,U,59634,999,12245,-.16429063E-4,-.714E-5,0
STARLINK-31798,2024-082E,2026-07-02T13:05:23.042976,15.27595501,.0001629,43.0020,211.5110,278.8905,81.1762,0,U,59635,999,12237,.85767E-4,.21E-4,0
STARLINK-31802,2024-082F,2026-07-02T19:10:55.956000,15.27571061,.00032461,43.0094,209.9735,266.4055,93.6426,0,U,59636,999,12241,.20642191E-4,.305E-5,0
STARLINK-31791,2024-082G,2026-07-02T18:19:07.982976,15.27577206,.00013547,43.0004,209.7008,276.4171,83.6527,0,U,59637,999,12241,.1027364E-5,-.234E-5,0
STARLINK-31727,2024-082H,2026-07-02T13:10:58.154016,15.27578371,.0001391,43.0012,211.5353,271.5167,88.5525,0,U,59638,999,12242,.15154E-4,.155E-5,0
STARLINK-31807,2024-082J,2026-07-02T19:16:30.184032,15.27573788,.00014057,43.0024,210.0054,290.3506,69.7195,0,U,59639,999,12241,-.17978697E-4,-.757E-5,0
STARLINK-31806,2024-082K,2026-07-02T18:50:35.087712,15.27574000,.00024401,43.0076,209.8654,265.9201,94.1372,0,U,59640,999,12241,-.323201E-4,-.1152E-4,0
STARLINK-31804,2024-082L,2026-07-02T18:13:34.982688,15.27574716,.00015736,43.0004,209.6711,300.7905,59.2792,0,U,59641,999,12241,.4683134E-4,.1026E-4,0
STARLINK-31660,2024-082M,2026-07-02T15:53:03.345792,15.27578773,.00008501,43.0037,170.1299,295.8813,64.1951,0,U,59642,999,12305,-.12489887E-3,-.3697E-4,0
STARLINK-31800,2024-082N,2026-07-02T19:07:13.982304,15.27570280,.00034686,43.0076,209.9390,273.9592,86.0864,0,U,59643,999,12251,.47831833E-4,.1053E-4,0
STARLINK-31789,2024-082P,2026-07-02T18:30:13.861728,15.27586099,.00016765,42.9937,209.7598,273.3107,86.7553,0,U,59644,999,12261,.6274254E-3,.17047E-3,0
STARLINK-31795,2024-082Q,2026-07-02T04:53:30.685632,15.27582761,.00013544,43.0029,154.5254,272.7002,87.3695,0,U,59645,999,12299,.59620038E-4,.1379E-4,0
STARLINK-31796,2024-082R,2026-07-02T18:39:29.153664,15.27574552,.00020878,43.0047,209.8055,275.5058,84.5556,0,U,59646,999,12257,.13811456E-4,.118E-5,0
STARLINK-31801,2024-082S,2026-07-02T13:16:31.024704,15.27581281,.0001673,43.0007,211.5629,277.6346,82.4315,0,U,59647,999,12242,.31477E-4,.604E-5,0
STARLINK-31787,2024-082V,2026-07-02T18:45:02.643840,15.27571414,.00010941,43.0014,209.8345,274.1462,85.9264,0,U,59650,999,12261,-.25437133E-4,-.962E-5,0
STARLINK-31277,2024-082W,2026-07-02T18:56:08.290176,15.27572504,.00022118,43.0064,209.8970,277.1128,82.9472,0,U,59651,999,12261,-.29619047E-4,-.1077E-4,0
STARLINK-31799,2024-082X,2026-07-02T18:15:40.920192,15.27578651,.00015055,43.0043,199.2772,274.0343,86.0336,0,U,59652,999,12258,-.5893885E-5,-.424E-5,0
STARLINK-31764,2024-082Y,2026-07-02T18:24:41.176800,15.27575879,.00012367,42.9987,209.7274,276.1615,83.9096,0,U,59653,999,12261,-.17067913E-4,-.732E-5,0
STARLINK-31589,2024-084A,2026-07-02T19:48:49.933152,15.27581701,.00005135,42.9995,111.4043,252.4456,107.6339,0,U,59654,999,12200,-.97333835E-4,-.2939E-4,0
STARLINK-31665,2024-084B,2026-07-02T20:00:38.404512,15.27529748,.00009652,43.0011,108.0126,186.3254,173.7586,0,U,59655,999,12202,.27585297E-3,.7325E-4,0
STARLINK-31912,2024-084C,2026-07-02T20:29:32.051616,15.27575112,.00008489,42.9993,111.6155,261.6363,98.4392,0,U,59656,999,12198,.18143063E-4,.237E-5,0
STARLINK-31904,2024-084D,2026-07-02T20:14:43.676448,15.27568593,.00006561,43.0038,111.5397,252.5019,107.5762,0,U,59657,999,12198,-.7021185E-5,-.455E-5,0
